#aV2014  4 28  0  0  0.00000000     288 DD+AD WGS84 FIT  NGA
## 1790  86400.00000000   300.00000000 56775 0.0000000000000
+   32     1  2  3  4  5  6  7  8  9 10 11 12 13 14 15 16 17
+         18 19 20 21 22 23 24 25 26 27 28 29 30 31 32  0  0
+          0  0  0  0  0  0  0  0  0  0  0  0  0  0  0  0  0
+          0  0  0  0  0  0  0  0  0  0  0  0  0  0  0  0  0
+          0  0  0  0  0  0  0  0  0  0  0  0  0  0  0  0  0
++         2  2  2  2  2  2  2  2  2  2  2  2  2  2  2  2  2
++         2  2  2  2  2  2  2  2  2  2  2  2  2  2  2  0  0
++         0  0  0  0  0  0  0  0  0  0  0  0  0  0  0  0  0
++         0  0  0  0  0  0  0  0  0  0  0  0  0  0  0  0  0
++         0  0  0  0  0  0  0  0  0  0  0  0  0  0  0  0  0
%c cc cc ccc ccc cccc cccc cccc cccc ccccc ccccc ccccc ccccc
%c cc cc ccc ccc cccc cccc cccc cccc ccccc ccccc ccccc ccccc
%f  0.0000000  0.000000000  0.00000000000  0.000000000000000
%f  0.0000000  0.000000000  0.00000000000  0.000000000000000
%i    0    0    0    0      0      0      0      0         0
%i    0    0    0    0      0      0      0      0         0
/*      NGA, ST. LOUIS,MO.                                  
/*   EPHEMERIS COMPUTED FROM  1 DAYS OF DATA                
/*   EPOCHA SMOOTHER                                       
/* CCCCCCCCCCCCCCCCCCCCCCCCCCCCCCCCCCCCCCCCCCCCCCCCCCCCCCCCC
*  2014  4 28  5 30  0.00000000
P  1  22796.198540  13638.149942  -1963.846631     10.283849                    
V  1  -3430.220095   1241.640469 -31530.306053      0.014101                    
P  2  -5111.135760 -18161.541990  19163.054401    492.223370                    
V  2  21778.922591   9299.871192  14352.101706      0.021598                    
P  3   3287.260515  17120.037729 -20549.636249    357.559843                    
V  3 -19606.582186  15561.929154  10258.105476      0.050199                    
P  4  10684.544354 -11804.290340  20975.565715      6.863285                    
V  4  24170.110589  12939.676173  -4724.724795      0.000958                    
P  5  -2751.197954 -26239.105754  -2186.409585   -376.279614                    
V  5   3229.092224  -2898.504658  31408.434486      0.023190                    
P  6  -6989.510593  22782.503930  11325.403758   -157.532656                    
V  6  -2446.756702 -14626.439777  27719.961460     -0.020094                    
P  7  23721.020032   4234.355052 -11469.276808    340.208907                    
V  7  11815.282858   8657.531680  27142.774811      0.042323                    
P  8  18694.530168  -1904.164559 -18864.964998     13.186650                    
V  8  19378.565125  14139.171879  17044.676558      0.003051                    
P  9  16304.359770  -6815.473796 -20420.864875    323.456968                    
V  9  21471.756115  12102.733021  13282.181430      0.028795                    
P 10   9372.266958 -20301.304480  13667.735520   -123.322742                    
V 10   3491.340813  18042.918911  24242.435583     -0.015409                    
P 11  19966.393496  13286.014032 -12117.888569   -484.376406                    
V 11 -15200.087473   1311.487687 -24389.205460     -0.032733                    
P 12 -11162.402498 -17272.620272  16869.987703    201.420918                    
V 12   1113.791909 -21399.585542 -20874.410720      0.024183                    
P 13  23641.854320  -2803.715002  11805.084312      5.279061                    
V 13 -12736.832834   8347.435503  27021.838505     -0.037969                    
P 14 -21660.816111  14731.921122   4080.669587    177.763895                    
V 14  -5561.281385     49.562217 -31504.940074     -0.033755                    
P 15 -10829.831671 -11608.237874 -21365.654110   -176.386400                    
V 15  22222.920659 -15463.628884  -2580.835258     -0.021557                    
P 16   1136.051442  26230.275989  -2382.623212   -221.128500                    
V 16  -2286.268541   2954.360903  32410.205712      0.018324                    
P 17  20671.155274 -15807.993934   4920.531916    -88.676194                    
V 17   6501.081923   -650.649473 -31247.082094     -0.031833                    
P 18 -15514.118413   3281.994553 -20838.404596    315.930549                    
V 18  -1930.979082 -27606.627437  -3182.909535      0.023198                    
P 19   7982.073816  12957.333065 -21912.364206   -453.654453                    
V 19 -24519.152026  12403.176578  -1165.397904     -0.022620                    
P 20  14069.256868  15057.943179  16606.057688    183.993345                    
V 20   -195.632599  21653.788616 -19187.061461      0.037723                    
P 21 -23115.638015  -1231.825086 -12787.292228   -357.905974                    
V 21 -13954.855839 -10373.794665  24533.795491     -0.022197                    
P 22 -11532.501072  17191.231176 -16343.790091    230.124114                    
V 22  -3677.566480 -21172.585867 -19591.286959      0.027112                    
P 23  16909.040151   6087.307741  19786.704903    -16.022616                    
V 23 -20530.142126  13968.026081  12904.098857     -0.031382                    
P 24 -20383.844044 -15737.070672  -6727.467848    -27.474425                    
V 24   8805.964917   1438.786884 -30049.605308     -0.006498                    
P 25 -14810.394298  -3996.539266  21628.651409     22.798583                    
V 25   -862.582571 -27550.602212  -5531.706714      0.008088                    
P 26   2218.076308 -16974.932975 -20888.404967     95.462436                    
V 26  22781.569511 -10532.689072  11632.223950     -0.115541                    
P 27  -4439.442909  18284.497867 -18726.759359    -18.520226                    
V 27 -20828.298333  11578.332874  16299.017088      0.012312                    
P 28  12526.118348 -13489.228273 -18493.027133    350.622175                    
V 28    737.086353  24758.820346 -17142.856229      0.028854                    
P 29 -22842.673431   2354.518472  13346.086624    528.632372                    
V 29  13695.819380 -10080.689822  25345.253644      0.027218                    
P 30  18857.626645  -3402.336709 -18411.472048     -4.619854                    
V 30  18965.550531  13717.509653  16872.930573     -0.039736                    
P 31  -6268.128202  13548.954464  22108.673503    334.252167                    
V 31 -24227.364874 -13358.864518   1628.954585      0.000278                    
P 32   5401.577516  24706.341746   9030.012884   -440.422769                    
V 32  -2970.564510  11117.667841 -28300.609383      0.078368                    
EOF
